start=new Date('2022-05-23T00:00:00.000Z').valueOf();
sats=[{"MEAN_ELEMENT_THEORY":"SGP4","LAUNCH_DATE":"2020-06-04","OBJECT_TYPE":"PAYLOAD","PERIOD":"95.592","MEAN_MOTION_DDOT":"0.0000000000000","ECCENTRICITY":"0.00017060","INCLINATION":"53.0548","EPOCH":"2022-05-22T19:38:54.358944","ARG_OF_PERICENTER":"51.2135","REF_FRAME":"TEME","PERIAPSIS":"546.026","CLASSIFICATION_TYPE":"U","RA_OF_ASC_NODE":"172.5102","EPHEMERIS_TYPE":"0","RCS_SIZE":"LARGE","MEAN_MOTION_DOT":"0.00000785","FILE":"3459268","REV_AT_EPOCH":"10970","COUNTRY_CODE":"US","TLE_LINE2":"2 45673  53.0548 172.5102 0001706  51.2135 308.9006 15.06401953109708","NORAD_CAT_ID":"45673","TIME_SYSTEM":"UTC","MEAN_MOTION":"15.06401953","DECAY_DATE":null,"BSTAR":"0.00007157100000","APOAPSIS":"548.389","OBJECT_NAME":"STARLINK-1456","MEAN_ANOMALY":"308.9006","SEMIMAJOR_AXIS":"6925.343","ELEMENT_SET_NO":"999","GP_ID":"204279015","CENTER_NAME":"EARTH","OBJECT_ID":"2020-035S","SITE":"AFETR","TLE_LINE1":"1 45673U 20035S   22142.81868471  .00000785  00000-0  71571-4 0  9994"},{"BSTAR":"0.00024559000000","DECAY_DATE":null,"APOAPSIS":"548.307","MEAN_ANOMALY":"297.7197","OBJECT_NAME":"STARLINK-1457","SEMIMAJOR_AXIS":"6925.341","ELEMENT_SET_NO":"999","NORAD_CAT_ID":"45674","TIME_SYSTEM":"UTC","MEAN_MOTION":"15.06402384","SITE":"AFETR","TLE_LINE1":"1 45674U 20035T   22142.49432503  .00003379  00000-0  24559-3 0  9997","GP_ID":"204253072","CENTER_NAME":"EARTH","OBJECT_ID":"2020-035T","INCLINATION":"53.0530","EPOCH":"2022-05-22T11:51:49.682592","ARG_OF_PERICENTER":"62.3953","MEAN_ELEMENT_THEORY":"SGP4","LAUNCH_DATE":"2020-06-04","OBJECT_TYPE":"PAYLOAD","PERIOD":"95.592","ECCENTRICITY":"0.00015900","MEAN_MOTION_DDOT":"0.0000000000000","RA_OF_ASC_NODE":"173.9779","EPHEMERIS_TYPE":"0","RCS_SIZE":"LARGE","REV_AT_EPOCH":"10925","FILE":"3459021","MEAN_MOTION_DOT":"0.00003379","COUNTRY_CODE":"US","TLE_LINE2":"2 45674  53.0530 173.9779 0001590  62.3953 297.7197 15.06402384109252","PERIAPSIS":"546.105","REF_FRAME":"TEME","CLASSIFICATION_TYPE":"U"},{"MEAN_ELEMENT_THEORY":"SGP4","LAUNCH_DATE":"2020-06-04","MEAN_MOTION_DDOT":"0.0000000000000","PERIOD":"95.592","ECCENTRICITY":"0.00023140","OBJECT_TYPE":"PAYLOAD","EPOCH":"2022-05-22T19:33:35.738208","INCLINATION":"53.0548","ARG_OF_PERICENTER":"34.3352","REF_FRAME":"TEME","PERIAPSIS":"545.600","CLASSIFICATION_TYPE":"U","RA_OF_ASC_NODE":"172.5381","EPHEMERIS_TYPE":"0","FILE":"3459268","MEAN_MOTION_DOT":"0.00000740","REV_AT_EPOCH":"10966","RCS_SIZE":"LARGE","TLE_LINE2":"2 45675  53.0548 172.5381 0002314  34.3352 325.7786 15.06403571109663","COUNTRY_CODE":"US","NORAD_CAT_ID":"45675","TIME_SYSTEM":"UTC","MEAN_MOTION":"15.06403571","OBJECT_NAME":"STARLINK-1458","MEAN_ANOMALY":"325.7786","DECAY_DATE":null,"APOAPSIS":"548.805","BSTAR":"0.00006857100000","ELEMENT_SET_NO":"999","SEMIMAJOR_AXIS":"6925.338","GP_ID":"204278516","CENTER_NAME":"EARTH","OBJECT_ID":"2020-035U","SITE":"AFETR","TLE_LINE1":"1 45675U 20035U   22142.81499697  .00000740  00000-0  68571-4 0  9993"},{"RCS_SIZE":"LARGE","MEAN_MOTION_DOT":"0.00000478","FILE":"3459268","REV_AT_EPOCH":"10965","COUNTRY_CODE":"US","TLE_LINE2":"2 45676  53.0553 172.6818 0001995  45.9706 314.1447 15.06396860109658","RA_OF_ASC_NODE":"172.6818","EPHEMERIS_TYPE":"0","CLASSIFICATION_TYPE":"U","PERIAPSIS":"545.842","REF_FRAME":"TEME","ARG_OF_PERICENTER":"45.9706","EPOCH":"2022-05-22T18:51:08.801856","INCLINATION":"53.0553","LAUNCH_DATE":"2020-06-04","OBJECT_TYPE":"PAYLOAD","PERIOD":"95.592","ECCENTRICITY":"0.00019950","MEAN_MOTION_DDOT":"0.0000000000000","MEAN_ELEMENT_THEORY":"SGP4","SITE":"AFETR","TLE_LINE1":"1 45676U 20035V   22142.78551854  .00000478  00000-0  50974-4 0  9990","OBJECT_ID":"2020-035V","GP_ID":"204278766","CENTER_NAME":"EARTH","SEMIMAJOR_AXIS":"6925.358","ELEMENT_SET_NO":"999","APOAPSIS":"548.605","DECAY_DATE":null,"BSTAR":"0.00005097400000","OBJECT_NAME":"STARLINK-1460","MEAN_ANOMALY":"314.1447","MEAN_MOTION":"15.06396860","NORAD_CAT_ID":"45676","TIME_SYSTEM":"UTC"},{"ARG_OF_PERICENTER":"47.0511","EPOCH":"2022-05-22T19:07:03.644544","INCLINATION":"53.0527","PERIOD":"95.592","ECCENTRICITY":"0.00019850","MEAN_MOTION_DDOT":"0.0000000000000","OBJECT_TYPE":"PAYLOAD","LAUNCH_DATE":"2020-06-04","MEAN_ELEMENT_THEORY":"SGP4","TLE_LINE2":"2 45677  53.0527 172.6194 0001985  47.0511 313.0644 15.06400348109691","COUNTRY_CODE":"US","REV_AT_EPOCH":"10969","FILE":"3459268","MEAN_MOTION_DOT":"0.00000639","RCS_SIZE":"LARGE","EPHEMERIS_TYPE":"0","RA_OF_ASC_NODE":"172.6194","CLASSIFICATION_TYPE":"U","REF_FRAME":"TEME","PERIAPSIS":"545.838","ELEMENT_SET_NO":"999","SEMIMAJOR_AXIS":"6925.347","MEAN_ANOMALY":"313.0644","OBJECT_NAME":"STARLINK-1392","DECAY_DATE":null,"BSTAR":"0.00006180600000","APOAPSIS":"548.587","MEAN_MOTION":"15.06400348","TIME_SYSTEM":"UTC","NORAD_CAT_ID":"45677","TLE_LINE1":"1 45677U 20035W   22142.79656996  .00000639  00000-0  61806-4 0  9990","SITE":"AFETR","OBJECT_ID":"2020-035W","CENTER_NAME":"EARTH","GP_ID":"204279515"},{"CENTER_NAME":"EARTH","GP_ID":"204279761","OBJECT_ID":"2020-035X","TLE_LINE1":"1 45678U 20035X   22142.79011748  .00001497  00000-0  11940-3 0  9997","SITE":"AFETR","TIME_SYSTEM":"UTC","NORAD_CAT_ID":"45678","MEAN_MOTION":"15.06399994","MEAN_ANOMALY":"309.7633","OBJECT_NAME":"STARLINK-1393","DECAY_DATE":null,"BSTAR":"0.00011940000000","APOAPSIS":"548.576","ELEMENT_SET_NO":"999","SEMIMAJOR_AXIS":"6925.349","PERIAPSIS":"545.851","REF_FRAME":"TEME","CLASSIFICATION_TYPE":"U","EPHEMERIS_TYPE":"0","RA_OF_ASC_NODE":"162.6383","COUNTRY_CODE":"US","TLE_LINE2":"2 45678  53.0532 162.6383 0001968  50.3529 309.7633 15.06399994109812","MEAN_MOTION_DOT":"0.00001497","FILE":"3459268","REV_AT_EPOCH":"10981","RCS_SIZE":"LARGE","MEAN_ELEMENT_THEORY":"SGP4","MEAN_MOTION_DDOT":"0.0000000000000","PERIOD":"95.592","ECCENTRICITY":"0.00019680","OBJECT_TYPE":"PAYLOAD","LAUNCH_DATE":"2020-06-04","EPOCH":"2022-05-22T18:57:46.150272","INCLINATION":"53.0532","ARG_OF_PERICENTER":"50.3529"},{"TLE_LINE1":"1 45679U 20035Y   22142.79381273 -.00000090  00000-0  12878-4 0  9992","SITE":"AFETR","OBJECT_ID":"2020-035Y","CENTER_NAME":"EARTH","GP_ID":"204278017","SEMIMAJOR_AXIS":"6925.354","ELEMENT_SET_NO":"999","APOAPSIS":"548.275","DECAY_DATE":null,"BSTAR":"0.00001287800000","OBJECT_NAME":"STARLINK-1394","MEAN_ANOMALY":"299.0106","MEAN_MOTION":"15.06398137","TIME_SYSTEM":"UTC","NORAD_CAT_ID":"45679","TLE_LINE2":"2 45679  53.0548 162.6484 0001525  61.1036 299.0106 15.06398137109830","COUNTRY_CODE":"US","RCS_SIZE":"LARGE","MEAN_MOTION_DOT":"-0.00000090","FILE":"3459268","REV_AT_EPOCH":"10983","EPHEMERIS_TYPE":"0","RA_OF_ASC_NODE":"162.6484","CLASSIFICATION_TYPE":"U","PERIAPSIS":"546.163","REF_FRAME":"TEME","ARG_OF_PERICENTER":"61.1036","INCLINATION":"53.0548","EPOCH":"2022-05-22T19:03:05.419872","OBJECT_TYPE":"PAYLOAD","PERIOD":"95.592","ECCENTRICITY":"0.00015250","MEAN_MOTION_DDOT":"0.0000000000000","LAUNCH_DATE":"2020-06-04","MEAN_ELEMENT_THEORY":"SGP4"},{"OBJECT_NAME":"STARLINK-1395","MEAN_ANOMALY":"307.6524","DECAY_DATE":null,"BSTAR":"-0.00009093000000","APOAPSIS":"548.675","ELEMENT_SET_NO":"999","SEMIMAJOR_AXIS":"6925.349","TIME_SYSTEM":"UTC","NORAD_CAT_ID":"45680","MEAN_MOTION":"15.06399788","TLE_LINE1":"1 45680U 20035Z   22142.40309415 -.00001636  00000-0 -90930-4 0  9993","SITE":"AFETR","CENTER_NAME":"EARTH","GP_ID":"204239878","OBJECT_ID":"2020-035Z","INCLINATION":"53.0539","EPOCH":"2022-05-22T09:40:27.334560","ARG_OF_PERICENTER":"52.4657","MEAN_ELEMENT_THEORY":"SGP4","PERIOD":"95.592","MEAN_MOTION_DDOT":"0.0000000000000","ECCENTRICITY":"0.00021100","OBJECT_TYPE":"PAYLOAD","LAUNCH_DATE":"2020-06-04","EPHEMERIS_TYPE":"0","RA_OF_ASC_NODE":"164.4001","COUNTRY_CODE":"US","TLE_LINE2":"2 45680  53.0539 164.4001 0002110  52.4657 307.6524 15.06399788109765","REV_AT_EPOCH":"10976","FILE":"3458680","MEAN_MOTION_DOT":"-0.00001636","RCS_SIZE":"LARGE","PERIAPSIS":"545.753","REF_FRAME":"TEME","CLASSIFICATION_TYPE":"U"},{"COUNTRY_CODE":"US","TLE_LINE2":"2 45681  53.0555 163.8130 0001778  51.5181 308.5968 15.06397053109799","RCS_SIZE":"LARGE","REV_AT_EPOCH":"10979","FILE":"3458680","MEAN_MOTION_DOT":"0.00001111","EPHEMERIS_TYPE":"0","RA_OF_ASC_NODE":"163.8130","CLASSIFICATION_TYPE":"U","REF_FRAME":"TEME","PERIAPSIS":"545.991","ARG_OF_PERICENTER":"51.5181","INCLINATION":"53.0555","EPOCH":"2022-05-22T12:46:14.051712","OBJECT_TYPE":"PAYLOAD","PERIOD":"95.592","ECCENTRICITY":"0.00017780","MEAN_MOTION_DDOT":"0.0000000000000","LAUNCH_DATE":"2020-06-04","MEAN_ELEMENT_THEORY":"SGP4","TLE_LINE1":"1 45681U 20035AA  22142.53210708  .00001111  00000-0  93517-4 0  9994","SITE":"AFETR","OBJECT_ID":"2020-035AA","CENTER_NAME":"EARTH","GP_ID":"204240629","SEMIMAJOR_AXIS":"6925.358","ELEMENT_SET_NO":"999","APOAPSIS":"548.454","DECAY_DATE":null,"BSTAR":"0.00009351700000","OBJECT_NAME":"STARLINK-1396","MEAN_ANOMALY":"308.5968","MEAN_MOTION":"15.06397053","TIME_SYSTEM":"UTC","NORAD_CAT_ID":"45681"},{"SEMIMAJOR_AXIS":"6925.366","ELEMENT_SET_NO":"999","DECAY_DATE":null,"APOAPSIS":"548.819","BSTAR":"0.00011351000000","MEAN_ANOMALY":"316.8086","OBJECT_NAME":"STARLINK-1397","MEAN_MOTION":"15.06394409","NORAD_CAT_ID":"45682","TIME_SYSTEM":"UTC","SITE":"AFETR","TLE_LINE1":"1 45682U 20035AB  22142.53948103  .00001409  00000-0  11351-3 0  9997","OBJECT_ID":"2020-035AB","GP_ID":"204252348","CENTER_NAME":"EARTH","ARG_OF_PERICENTER":"43.3083","EPOCH":"2022-05-22T12:56:51.160992","INCLINATION":"53.0545","LAUNCH_DATE":"2020-06-04","OBJECT_TYPE":"PAYLOAD","PERIOD":"95.592","MEAN_MOTION_DDOT":"0.0000000000000","ECCENTRICITY":"0.00022930","MEAN_ELEMENT_THEORY":"SGP4","RCS_SIZE":"LARGE","MEAN_MOTION_DOT":"0.00001409","FILE":"3459059","REV_AT_EPOCH":"10938","TLE_LINE2":"2 45682  53.0545 163.7627 0002293  43.3083 316.8086 15.06394409109382","COUNTRY_CODE":"US","RA_OF_ASC_NODE":"163.7627","EPHEMERIS_TYPE":"0","CLASSIFICATION_TYPE":"U","PERIAPSIS":"545.643","REF_FRAME":"TEME"}];
